NORAD_CAT_ID,OBJECT_NAME,OBJECT_TYPE,EPOCH,MEAN_MOTION,ECCENTRICITY,INCLINATION,RA_OF_ASC_NODE,ARG_OF_PERICENTER,MEAN_ANOMALY,BSTAR,MEAN_MOTION_DOT,MEAN_MOTION_DDOT,TLE_LINE0,TLE_LINE1,TLE_LINE2,SEMIMAJOR_AXIS,PERIOD,APOGEE,PERIGEE,DECAYED
53255.0,STARLINK-4142,PAYLOAD,2023-09-08 12:08:03,15.08845293,0.0001288,53.2177,333.5623,101.9368,258.1769,0.00016698,2.371e-05,0.0,0 STARLINK-4142,1 53255U 22086P   23251.50559685  .00002371  00000-0  16698-3 0  9990,2 53255  53.2177 333.5623 0001288 101.9368 258.1769 15.08845293 63203,6917.864,95.437,540.62,538.838,0.0
53255.0,STARLINK-4142,PAYLOAD,2023-09-08 15:18:49,15.08846323,0.0001296,53.2177,332.9673,104.3507,255.7629,0.00017602,2.515e-05,0.0,0 STARLINK-4142,1 53255U 22086P   23251.63807599  .00002515  00000-0  17602-3 0  9990,2 53255  53.2177 332.9673 0001296 104.3507 255.7629 15.08846323 63227,6917.861,95.437,540.623,538.83,0.0
53255.0,STARLINK-4142,PAYLOAD,2023-09-09 00:51:08,15.08842215,0.0001337,53.2172,331.1844,91.946,268.1685,0.00014575,2.033e-05,0.0,0 STARLINK-4142,1 53255U 22086P   23252.03551846  .00002033  00000-0  14575-3 0  9997,2 53255  53.2172 331.1844 0001337  91.9460 268.1685 15.08842215 63101,6917.874,95.437,540.664,538.814,0.0
53255.0,STARLINK-4142,PAYLOAD,2023-09-09 11:58:50,15.08845775,0.0001308,53.2178,329.1036,85.8254,274.2887,0.00012994,1.781e-05,0.0,0 STARLINK-4142,1 53255U 22086P   23252.49919506  .00001781  00000-0  12994-3 0  9990,2 53255  53.2178 329.1036 0001308  85.8254 274.2887 15.08845775 63351,6917.863,95.437,540.633,538.823,0.0
53255.0,STARLINK-4142,PAYLOAD,2023-09-10 10:14:14,15.08838256,0.0001199,53.2176,324.9411,84.8619,275.251,0.0001132,1.514e-05,0.0,0 STARLINK-4142,1 53255U 22086P   23253.42655998  .00001514  00000-0  11320-3 0  9992,2 53255  53.2176 324.9411 0001199  84.8619 275.2510 15.08838256 63317,6917.886,95.438,540.58,538.921,0.0
53255.0,STARLINK-4142,PAYLOAD,2023-09-11 10:05:02,15.08834305,0.0001409,53.2184,320.4837,81.2624,278.8528,2.6988e-05,1.42e-06,0.0,0 STARLINK-4142,1 53255U 22086P   23254.42016627  .00000142  00000-0  26988-4 0  9996,2 53255  53.2184 320.4837 0001409  81.2624 278.8528 15.08834305 63465,6917.898,95.438,540.738,538.788,0.0
53255.0,STARLINK-4142,PAYLOAD,2023-09-11 11:40:25,15.08835589,0.0001316,53.2175,320.1839,84.7009,275.4134,4.378e-05,4.09e-06,0.0,0 STARLINK-4142,1 53255U 22086P   23254.48640440  .00000409  00000-0  43780-4 0  9993,2 53255  53.2175 320.1839 0001316  84.7009 275.4134 15.08835589 63658,6917.894,95.438,540.669,538.848,0.0
53255.0,STARLINK-4142,PAYLOAD,2023-09-12 09:55:48,15.08843531,0.0001398,53.2182,316.0219,90.5337,269.5815,0.00012569,1.713e-05,0.0,0 STARLINK-4142,1 53255U 22086P   23255.41375898  .00001713  00000-0  12569-3 0  9998,2 53255  53.2182 316.0219 0001398  90.5337 269.5815 15.08843531 63613,6917.87,95.437,540.702,538.767,0.0
53255.0,STARLINK-4142,PAYLOAD,2023-09-12 13:06:34,15.08849585,0.0001306,53.2177,315.4262,85.2908,274.8234,0.00014258,1.983e-05,0.0,0 STARLINK-4142,1 53255U 22086P   23255.54623449  .00001983  00000-0  14258-3 0  9996,2 53255  53.2177 315.4262 0001306  85.2908 274.8234 15.08849585 63813,6917.851,95.437,540.62,538.813,0.0
53255.0,STARLINK-4142,PAYLOAD,2023-09-13 11:21:58,15.08848586,0.0001388,53.2174,311.2624,97.3301,262.7849,0.00017692,2.53e-05,0.0,0 STARLINK-4142,1 53255U 22086P   23256.47359372  .00002530  00000-0  17692-3 0  9994,2 53255  53.2174 311.2624 0001388  97.3301 262.7849 15.08848586 63950,6917.854,95.437,540.679,538.759,0.0
53255.0,STARLINK-4142,PAYLOAD,2023-09-13 20:54:18,15.08833767,0.0001644,53.2175,309.4792,76.1114,284.0061,3.5229e-05,2.73e-06,0.0,0 STARLINK-4142,1 53255U 22086P   23256.87104894  .00000273  00000-0  35229-4 0  9994,2 53255  53.2175 309.4792 0001644  76.1114 284.0061 15.08833767 64014,6917.899,95.438,540.902,538.627,0.0
53255.0,STARLINK-4142,PAYLOAD,2023-09-14 03:15:50,15.08836494,0.0001722,53.2156,308.2896,73.8526,286.2656,-0.00013451,-2.428e-05,0.0,0 STARLINK-4142,1 53255U 22086P   23257.13600415 -.00002428  00000-0 -13451-3 0  9992,2 53255  53.2156 308.2896 0001722  73.8526 286.2656 15.08836494 63870,6917.891,95.438,540.947,538.565,0.0
53255.0,STARLINK-4142,PAYLOAD,2023-09-14 09:37:25,15.08819418,0.0001491,53.2172,307.0996,75.9446,284.1712,-0.00013699,-2.466e-05,0.0,0 STARLINK-4142,1 53255U 22086P   23257.40098573 -.00002466  00000-0 -13699-3 0  9994,2 53255  53.2172 307.0996 0001491  75.9446 284.1712 15.08819418 63915,6917.943,95.439,540.84,538.777,0.0
53255.0,STARLINK-4142,PAYLOAD,2023-09-14 11:12:48,15.08825262,0.0001503,53.2179,306.8037,78.0718,282.0443,-0.0001398,-2.511e-05,0.0,0 STARLINK-4142,1 53255U 22086P   23257.46722277 -.00002511  00000-0 -13980-3 0  9999,2 53255  53.2179 306.8037 0001503  78.0718 282.0443 15.08825262 64109,6917.925,95.438,540.83,538.751,0.0
53255.0,STARLINK-4142,PAYLOAD,2023-09-14 20:45:06,15.08830349,0.0001347,53.2176,305.0179,85.3466,274.768,-3.4091e-05,-8.3e-06,0.0,0 STARLINK-4142,1 53255U 22086P   23257.86465834 -.00000830  00000-0 -34091-4 0  9995,2 53255  53.2176 305.0179 0001347  85.3466 274.7680 15.08830349 64160,6917.91,95.438,540.707,538.843,0.0
53255.0,STARLINK-4142,PAYLOAD,2023-09-14 22:20:29,15.08830633,0.0001367,53.2172,304.7201,85.3499,274.7649,-3.8384e-06,-3.49e-06,0.0,0 STARLINK-4142,1 53255U 22086P   23257.93089800 -.00000349  00000-0 -38384-5 0  9993,2 53255  53.2172 304.7201 0001367  85.3499 274.7649 15.08830633 63997,6917.909,95.438,540.72,538.828,0.0
53255.0,STARLINK-4142,PAYLOAD,2023-09-15 09:28:11,15.08841291,0.0001376,53.2171,302.6386,79.524,280.5907,9.9232e-05,1.292e-05,0.0,0 STARLINK-4142,1 53255U 22086P   23258.39457276  .00001292  00000-0  99232-4 0  9994,2 53255  53.2171 302.6386 0001376  79.5240 280.5907 15.08841291 64069,6917.876,95.437,540.693,538.79,0.0
53255.0,STARLINK-4142,PAYLOAD,2023-09-15 12:38:57,15.08840942,0.0001453,53.2161,302.0436,69.8798,290.2351,0.00015058,2.109e-05,0.0,0 STARLINK-4142,1 53255U 22086P   23258.52705543  .00002109  00000-0  15058-3 0  9993,2 53255  53.2161 302.0436 0001453  69.8798 290.2351 15.08840942 64269,6917.878,95.437,540.748,538.737,0.0
53255.0,STARLINK-4142,PAYLOAD,2023-09-16 09:18:58,15.08868777,0.0001544,53.2157,298.1783,69.7519,290.3639,0.00092849,0.00014531,0.0,0 STARLINK-4142,1 53255U 22086P   23259.38817242  .00014531  00000-0  92849-3 0  9993,2 53255  53.2157 298.1783 0001544  69.7519 290.3639 15.08868777 64216,6917.792,95.436,540.726,538.589,0.0
53255.0,STARLINK-4142,PAYLOAD,2023-09-17 09:09:44,15.08851618,0.0001591,53.2155,293.7172,71.5385,288.578,0.00013465,1.856e-05,0.0,0 STARLINK-4142,1 53255U 22086P   23260.38176841  .00001856  00000-0  13465-3 0  9991,2 53255  53.2155 293.7172 0001591  71.5385 288.5780 15.08851618 64369,6917.845,95.437,540.811,538.609,0.0
53255.0,STARLINK-4142,PAYLOAD,2023-09-18 02:38:59,15.08845726,0.0001502,53.2158,290.4458,82.6754,277.4409,-1.0515e-05,-4.55e-06,0.0,0 STARLINK-4142,1 53255U 22086P   23261.11040746 -.00000455  00000-0 -10515-4 0  9997,2 53255  53.2158 290.4458 0001502  82.6754 277.4409 15.08845726 64478,6917.863,95.437,540.767,538.689,0.0
53255.0,STARLINK-4142,PAYLOAD,2023-09-18 09:00:31,15.08847234,0.0001574,53.2161,289.2565,94.9198,265.1974,1.0298e-05,-1.24e-06,0.0,0 STARLINK-4142,1 53255U 22086P   23261.37536547 -.00000124  00000-0  10298-4 0  9994,2 53255  53.2161 289.2565 0001574  94.9198 265.1974 15.08847234 64695,6917.858,95.437,540.812,538.634,0.0
53255.0,STARLINK-4142,PAYLOAD,2023-09-18 18:32:50,15.08844325,0.000152,53.2169,287.4724,90.0689,270.0477,4.2617e-05,3.9e-06,0.0,0 STARLINK-4142,1 53255U 22086P   23261.77280814  .00000390  00000-0  42617-4 0  9995,2 53255  53.2169 287.4724 0001520  90.0689 270.0477 15.08844325 64751,6917.867,95.437,540.784,538.681,0.0
53255.0,STARLINK-4142,PAYLOAD,2023-09-19 10:26:41,15.0884933,0.0001575,53.2161,284.4992,89.2098,270.9074,0.00016971,2.415e-05,0.0,0 STARLINK-4142,1 53255U 22086P   23262.43520186  .00002415  00000-0  16971-3 0  9991,2 53255  53.2161 284.4992 0001575  89.2098 270.9074 15.08849330 64675,6917.852,95.437,540.806,538.627,0.0
53255.0,STARLINK-4142,PAYLOAD,2023-09-19 18:23:37,15.08838715,0.0001611,53.217,283.0123,96.1003,264.0172,9.655e-06,-1.34e-06,0.0,0 STARLINK-4142,1 53255U 22086P   23262.76640661 -.00000134  00000-0  96550-5 0  9998,2 53255  53.2170 283.0123 0001611  96.1003 264.0172 15.08838715 64724,6917.884,95.438,540.864,538.635,0.0
53255.0,STARLINK-4142,PAYLOAD,2023-09-20 02:20:33,15.08830918,0.0001785,53.216,281.5253,92.649,267.4707,-8.6382e-05,-1.662e-05,0.0,0 STARLINK-4142,1 53255U 22086P   23263.09761273 -.00001662  00000-0 -86382-4 0  9997,2 53255  53.2160 281.5253 0001785  92.6490 267.4707 15.08830918 64776,6917.908,95.438,541.008,538.538,0.0
53255.0,STARLINK-4142,PAYLOAD,2023-09-20 08:42:06,15.08830916,0.0001605,53.2162,280.3364,93.8114,266.3061,-7.9073e-05,-1.546e-05,0.0,0 STARLINK-4142,1 53255U 22086P   23263.36257369 -.00001546  00000-0 -79073-4 0  9993,2 53255  53.2162 280.3364 0001605  93.8114 266.3061 15.08830916 64998,6917.908,95.438,540.883,538.663,0.0
53255.0,STARLINK-4142,PAYLOAD,2023-09-20 18:14:25,15.08834183,0.0001697,53.2181,278.5522,94.2564,265.8622,3.5115e-05,2.71e-06,0.0,0 STARLINK-4142,1 53255U 22086P   23263.76001821  .00000271  00000-0  35115-4 0  9998,2 53255  53.2181 278.5522 0001697  94.2564 265.8622 15.08834183 65054,6917.898,95.438,540.937,538.589,0.0
53255.0,STARLINK-4142,PAYLOAD,2023-09-21 06:57:30,15.08837929,0.0001696,53.2181,276.1732,96.1191,263.9995,3.5177e-06,-2.32e-06,0.0,0 STARLINK-4142,1 53255U 22086P   23264.28993862 -.00000232  00000-0  35177-5 0  9998,2 53255  53.2181 276.1732 0001696  96.1191 263.9995 15.08837929 64958,6917.887,95.438,540.925,538.578,0.0
53255.0,STARLINK-4142,PAYLOAD,2023-09-21 18:05:12,15.08842961,0.000172,53.2182,274.0913,101.5953,258.5232,-2.0554e-05,-6.15e-06,0.0,0 STARLINK-4142,1 53255U 22086P   23264.75361623 -.00000615  00000-0 -20554-4 0  9992,2 53255  53.2182 274.0913 0001720 101.5953 258.5232 15.08842961 65207,6917.871,95.437,540.926,538.546,0.0
